NORAD_CAT_ID,OBJECT_NAME,OBJECT_TYPE,EPOCH,MEAN_MOTION,ECCENTRICITY,INCLINATION,RA_OF_ASC_NODE,ARG_OF_PERICENTER,MEAN_ANOMALY,BSTAR,MEAN_MOTION_DOT,MEAN_MOTION_DDOT,TLE_LINE0,TLE_LINE1,TLE_LINE2,SEMIMAJOR_AXIS,PERIOD,APOGEE,PERIGEE,DECAYED
51721.0,STARLINK-3524,PAYLOAD,2022-04-24 06:00:00,15.1307324,0.0001773,53.2175,203.2913,37.6297,331.8163,-0.043159,-0.00719315,0.0,0 STARLINK-3524,1 51721U 22016H   22114.25001157 -.00719315  00000-0 -43159-1 0  9999,2 51721  53.2175 203.2913 0001773  37.6297 331.8163 15.13073240 10869,6904.971,95.171,528.06,525.612,0.0
51721.0,STARLINK-3524,PAYLOAD,2022-04-24 14:00:01,15.1256615,0.0002078,53.2174,201.7901,30.6685,355.1475,-0.044153,-0.00725078,0.0,0 STARLINK-3524,1 51721U 22016H   22114.58334491 -.00725078  00000-0 -44153-1 0  9993,2 51721  53.2174 201.7901 0002078  30.6685 355.1475 15.12566150  3639,6906.514,95.202,529.815,526.944,0.0
51721.0,STARLINK-3524,PAYLOAD,2022-04-25 06:00:00,15.11543553,0.0001882,53.2175,198.7856,35.694,21.0294,-0.045085,-0.00719838,0.0,0 STARLINK-3524,1 51721U 22016H   22115.25001157 -.00719838  00000-0 -45085-1 0  9990,2 51721  53.2175 198.7856 0001882  35.6940  21.0294 15.11543553 11026,6909.629,95.267,532.794,530.194,0.0
51721.0,STARLINK-3524,PAYLOAD,2022-04-25 14:00:01,15.110359699999998,0.0002198,53.2175,197.2879,29.38300000000001,41.8722,-0.046062,-0.00724776,0.0,0 STARLINK-3524,1 51721U 22016H   22115.58334491 -.00724776  00000-0 -46062-1 0  9999,2 51721  53.2175 197.2879 0002198  29.3830  41.8722 15.11035970  3659,6911.176,95.299,534.56,531.5219999999998,0.0
51721.0,STARLINK-3524,PAYLOAD,2022-04-25 22:00:00,15.10525252,0.0001609,53.2175,195.7883,47.3366,37.8403,-0.046626,-0.00723338,0.0,0 STARLINK-3524,1 51721U 22016H   22115.91667824 -.00723338  00000-0 -46626-1 0  9994,2 51721  53.2175 195.7883 0001609  47.3366  37.8403 15.10525252  3643,6912.734,95.331,535.711,533.487,0.0
51721.0,STARLINK-3524,PAYLOAD,2022-04-26 06:00:00,15.10013913,0.0001781,53.2176,194.2905,42.057,56.4287,-0.047086,-0.0072042,0.0,0 STARLINK-3524,1 51721U 22016H   22116.25001157 -.00720420  00000-0 -47086-1 0  9993,2 51721  53.2176 194.2905 0001781  42.0570  56.4287 15.10013913 11173,6914.295,95.363,537.391,534.928,0.0
51721.0,STARLINK-3524,PAYLOAD,2022-04-26 14:00:01,15.09497435,0.0001979,53.2175,192.7956,37.4356,73.809,-0.04679,-0.00706738,0.0,0 STARLINK-3524,1 51721U 22016H   22116.58335648 -.00706738  00000-0 -46790-1 0  9991,2 51721  53.2175 192.7956 0001979  37.4356  73.8090 15.09497435  3630,6915.871999999999,95.396,539.105,536.368,0.0
51721.0,STARLINK-3524,PAYLOAD,2022-04-26 22:00:00,15.08871358,0.000183,53.2175,191.298,38.7645,84.5133,-0.0035221,-0.00055956,0.0,0 STARLINK-3524,1 51721U 22016H   22116.91667824 -.00055956  00000-0 -35221-2 0  9999,2 51721  53.2175 191.2980 0001830  38.7645  84.5133 15.08871358 11277,6917.785,95.436,540.915,538.384,0.0
51721.0,STARLINK-3524,PAYLOAD,2022-04-27 14:00:01,15.08856828,0.0001915,53.2188,188.2962,41.6036,105.0649,0.0015629,0.00024685,0.0,0 STARLINK-3524,1 51721U 22016H   22117.58335648  .00024685  00000-0  15629-2 0  9992,2 51721  53.2188 188.2962 0001915  41.6036 105.0649 15.08856828 11375,6917.829000000002,95.436,541.019,538.369,0.0
51721.0,STARLINK-3524,PAYLOAD,2022-04-27 22:00:00,15.0887172,0.0001631,53.2185,186.7986,39.8741,118.3632,-0.0068185,-0.00107286,0.0,0 STARLINK-3524,1 51721U 22016H   22117.91667824 -.00107286  00000-0 -68185-2 0  9999,2 51721  53.2185 186.7986 0001631  39.8741 118.3632 15.08871720 11421,6917.783,95.436,540.7769999999998,538.52,0.0
51721.0,STARLINK-3524,PAYLOAD,2022-04-28 06:00:00,15.08822852,0.0001525,53.2188,185.3023,40.3817,129.4486,0.00046428,7.105e-05,0.0,0 STARLINK-3524,1 51721U 22016H   22118.25001157  .00007105  00000-0  46428-3 0  9992,2 51721  53.2188 185.3023 0001525  40.3817 129.4486 15.08822852 11471,6917.933000000001,95.439,540.8530000000002,538.743,0.0
51721.0,STARLINK-3524,PAYLOAD,2022-04-28 14:00:01,15.08806395,0.0001747,53.2184,183.8076,34.3565,147.056,0.0032938,0.00052475,0.0,0 STARLINK-3524,1 51721U 22016H   22118.58334491  .00052475  00000-0  32938-2 0  9998,2 51721  53.2184 183.8076 0001747  34.3565 147.0560 15.08806395  3640,6917.983,95.44,541.057,538.64,0.0
51721.0,STARLINK-3524,PAYLOAD,2022-04-29 14:00:01,15.08835903,0.0001924,53.2177,179.3189,40.5692,175.641,-0.00034437,-5.764e-05,0.0,0 STARLINK-3524,1 51721U 22016H   22119.58334491 -.00005764  00000-0 -34437-3 0  9997,2 51721  53.2177 179.3189 0001924  40.5692 175.6410 15.08835903 11674,6917.893,95.438,541.089,538.427,0.0
51721.0,STARLINK-3524,PAYLOAD,2022-04-29 22:00:00,15.08810515,0.0001858,53.2173,177.8208,46.458,181.3447,-0.00067674,-0.00011034,0.0,0 STARLINK-3524,1 51721U 22016H   22119.91667824 -.00011034  00000-0 -67674-3 0  9999,2 51721  53.2173 177.8208 0001858  46.4580 181.3447 15.08810515  3624,6917.971,95.439,541.121,538.55,0.0
51721.0,STARLINK-3524,PAYLOAD,2022-04-30 12:00:00,15.08801584,0.0002074,53.2171,175.204,45.90600000000001,112.1214,0.0013526,0.00021282,0.0,0 STARLINK-3524,1 51721U 22016H   22120.50001157  .00021282  00000-0  13526-2 0  9997,2 51721  53.2171 175.2040 0002074  45.9060 112.1214 15.08801584 11816,6917.998000000001,95.44,541.298,538.428,0.0
51721.0,STARLINK-3524,PAYLOAD,2022-04-30 14:00:01,15.08790165,0.0002091,53.217,174.8301,44.5227,206.3975,0.0033941,0.0005407,0.0,0 STARLINK-3524,1 51721U 22016H   22120.58334491  .00054070  00000-0  33941-2 0  9999,2 51721  53.2170 174.8301 0002091  44.5227 206.3975 15.08790165  3609,6918.033,95.441,541.344,538.451,0.0
51721.0,STARLINK-3524,PAYLOAD,2022-04-30 22:00:00,15.08821862,0.0001941,53.2169,173.3318,48.0155,214.4812,0.0012229,0.00019218,0.0,0 STARLINK-3524,1 51721U 22016H   22120.91667824  .00019218  00000-0  12229-2 0  9996,2 51721  53.2169 173.3318 0001941  48.0155 214.4812 15.08821862  3598,6917.936,95.439,541.144,538.4580000000002,0.0
51721.0,STARLINK-3524,PAYLOAD,2022-05-01 14:00:01,15.08832239,0.0002118,53.2167,170.34099999999995,43.7045,241.9715,0.00046815,7.169e-05,0.0,0 STARLINK-3524,1 51721U 22016H   22121.58334491  .00007169  00000-0  46815-3 0  9992,2 51721  53.2167 170.3410 0002118  43.7045 241.9715 15.08832239 11971,6917.904,95.438,541.234,538.304,0.0
51721.0,STARLINK-3524,PAYLOAD,2022-05-01 22:00:01,15.08813829,0.0001941,53.2168,168.8427,45.9934,251.3435,0.0016104,0.00025416,0.0,0 STARLINK-3524,1 51721U 22016H   22121.91668981  .00025416  00000-0  16104-2 0  9995,2 51721  53.2168 168.8427 0001941  45.9934 251.3435 15.08813829  3638,6917.96,95.439,541.168,538.4830000000002,0.0
51721.0,STARLINK-3524,PAYLOAD,2022-05-02 14:00:01,15.08816228,0.0002168,53.2167,165.8517,42.6602,277.7781,0.0029594,0.00047096,0.0,0 STARLINK-3524,1 51721U 22016H   22122.58334491  .00047096  00000-0  29594-2 0  9990,2 51721  53.2167 165.8517 0002168  42.6602 277.7781 15.08816228 12128,6917.953,95.439,541.318,538.318,0.0
51721.0,STARLINK-3524,PAYLOAD,2022-05-02 22:00:01,15.08826791,0.000201,53.217,164.3534,46.8752,285.2218,0.0019292,0.00030538,0.0,0 STARLINK-3524,1 51721U 22016H   22122.91668981  .00030538  00000-0  19292-2 0  9998,2 51721  53.2170 164.3534 0002010  46.8752 285.2218 15.08826791  3599,6917.920999999999,95.438,541.1759999999998,538.395,0.0
51721.0,STARLINK-3524,PAYLOAD,2022-05-03 04:00:00,15.08856133,0.0002045,53.2171,163.2313,49.3288,201.3926,-4.6863e-05,-1.034e-05,0.0,0 STARLINK-3524,1 51721U 22016H   22123.16667824 -.00001034  00000-0 -46863-4 0  9998,2 51721  53.2171 163.2313 0002045  49.3288 201.3926 15.08856133 12210,6917.831,95.437,541.111,538.281,0.0
51721.0,STARLINK-3524,PAYLOAD,2022-05-03 14:00:01,15.08844086,0.0002193,53.2169,161.3624,42.3142,312.9211,0.00084277,0.00013152,0.0,0 STARLINK-3524,1 51721U 22016H   22123.58334491  .00013152  00000-0  84277-3 0  9997,2 51721  53.2169 161.3624 0002193  42.3142 312.9211 15.08844086  3622,6917.868,95.437,541.25,538.216,0.0
51721.0,STARLINK-3524,PAYLOAD,2022-05-03 22:00:00,15.08820053,0.0001965,53.2171,159.8642,45.9706,320.8853,0.0015826,0.00024975,0.0,0 STARLINK-3524,1 51721U 22016H   22123.91667824  .00024975  00000-0  15826-2 0  9991,2 51721  53.2171 159.8642 0001965  45.9706 320.8853 15.08820053  3615,6917.941,95.439,541.1659999999998,538.447,0.0
51721.0,STARLINK-3524,PAYLOAD,2022-05-04 06:00:02,15.08855487,0.0002053,53.2174,158.3686,45.6362,332.8618,-0.0016154,-0.00025917,0.0,0 STARLINK-3524,1 51721U 22016H   22124.25002315 -.00025917  00000-0 -16154-2 0  9991,2 51721  53.2174 158.3686 0002053  45.6362 332.8618 15.08855487 12389,6917.833000000001,95.437,541.118,538.278,0.0
51721.0,STARLINK-3524,PAYLOAD,2022-05-04 14:00:01,15.08829378,0.0002166,53.2171,156.8731,41.4597,348.5768,0.0021489,0.00034068,0.0,0 STARLINK-3524,1 51721U 22016H   22124.58334491  .00034068  00000-0  21489-2 0  9992,2 51721  53.2171 156.8731 0002166  41.4597 348.5768 15.08829378  3581,6917.913000000001,95.438,541.276,538.279,0.0
51721.0,STARLINK-3524,PAYLOAD,2022-05-04 20:00:01,15.08846839,0.0002015,53.2173,155.7494,45.3184,263.4789,-0.00017563,-3.083e-05,0.0,0 STARLINK-3524,1 51721U 22016H   22124.83335648 -.00003083  00000-0 -17563-3 0  9999,2 51721  53.2173 155.7494 0002015  45.3184 263.4789 15.08846839 12461,6917.859,95.437,541.118,538.331,0.0
51721.0,STARLINK-3524,PAYLOAD,2022-05-04 22:00:01,15.08826979,0.0001946,53.2173,155.375,46.3783,355.3264,0.0025006,0.0003972,0.0,0 STARLINK-3524,1 51721U 22016H   22124.91668981  .00039720  00000-0  25006-2 0  9992,2 51721  53.2173 155.3750 0001946  46.3783 355.3264 15.08826979  3631,6917.92,95.438,541.131,538.439,0.0
51721.0,STARLINK-3524,PAYLOAD,2022-05-05 14:00:01,15.08816253,0.000209,53.217,152.3841,39.9441,24.8883,0.001547,0.00024402,0.0,0 STARLINK-3524,1 51721U 22016H   22125.58334491  .00024402  00000-0  15470-2 0  9997,2 51721  53.2170 152.3841 0002090  39.9441  24.8883 15.08816253  3624,6917.953,95.439,541.264,538.372,0.0
